{"type": "FeatureCollection", "features": [ {"type": "Feature", "properties": {"norad_id": 37295, "name": "COSMOS 2251 DEB", "group": "cosmos-2251-debris", "lat": 55.88670173303889, "lon": -75.95973172127815, "alt_km": 640.5034564072985, "timestamp": "2025-12-24T11:33:00.416361+00:00", "meta": {"OBJECT_NAME": "COSMOS 2251 DEB", "OBJECT_ID": "1993-036BJK", "EPOCH": "2025-12-22T00:17:34.421280", "MEAN_MOTION": 14.65289136, "ECCENTRICITY": 0.00439318, "INCLINATION": 74.0064, "RA_OF_ASC_NODE": 263.7481, "ARG_OF_PERICENTER": 80.1076, "MEAN_ANOMALY": 280.5048, "EPHEMERIS_TYPE": 0, "CLASSIFICATION_TYPE": "U", "NORAD_CAT_ID": 37295, "ELEMENT_SET_NO": 999, "REV_AT_EPOCH": 82440, "BSTAR": 0.0005221723, "MEAN_MOTION_DOT": 2.826e-05, "MEAN_MOTION_DDOT": 0}, "tle": {"line1": "1 37295U 93036BJK 25356.01220395  .00002826  00000+0  52217-3 0  9997", "line2": "2 37295  74.0064 263.7481 0043931  80.1076 280.5048 14.65289136824402"}}, "geometry": {"type": "Point", "coordinates": [-75.95973172127815, 55.88670173303889]}}, {"type": "Feature", "properties": {"norad_id": 37305, "name": "COSMOS 2251 DEB", "group": "cosmos-2251-debris", "lat": 49.290416676693695, "lon": -71.61026513619139, "alt_km": 801.6603763050471, "timestamp": "2025-12-24T11:33:00.416371+00:00", "meta": {"OBJECT_NAME": "COSMOS 2251 DEB", "OBJECT_ID": "1993-036BJV", "EPOCH": "2025-12-23T00:11:55.974336", "MEAN_MOTION": 14.36169187, "ECCENTRICITY": 0.00495961, "INCLINATION": 73.8701, "RA_OF_ASC_NODE": 271.4675, "ARG_OF_PERICENTER": 230.2466, "MEAN_ANOMALY": 129.4312, "EPHEMERIS_TYPE": 0, "CLASSIFICATION_TYPE": "U", "NORAD_CAT_ID": 37305, "ELEMENT_SET_NO": 999, "REV_AT_EPOCH": 67014, "BSTAR": 0.00056579218, "MEAN_MOTION_DOT": 1.645e-05, "MEAN_MOTION_DDOT": 0}, "tle": {"line1": "1 37305U 93036BJV 25357.00828674  .00001645  00000+0  56579-3 0  9996", "line2": "2 37305  73.8701 271.4675 0049596 230.2466 129.4312 14.36169187670140"}}, "geometry": {"type": "Point", "coordinates": [-71.61026513619139, 49.290416676693695]}}, {"type": "Feature", "properties": {"norad_id": 37312, "name": "COSMOS 2251 DEB", "group": "cosmos-2251-debris", "lat": 22.871507384221925, "lon": -4.674568128120483, "alt_km": 745.5904741369159, "timestamp": "2025-12-24T11:33:00.416381+00:00", "meta": {"OBJECT_NAME": "COSMOS 2251 DEB", "OBJECT_ID": "1993-036BKC", "EPOCH": "2025-12-23T04:56:41.595072", "MEAN_MOTION": 14.46156001, "ECCENTRICITY": 0.00184458, "INCLINATION": 74.0297, "RA_OF_ASC_NODE": 184.6435, "ARG_OF_PERICENTER": 287.0443, "MEAN_ANOMALY": 72.8694, "EPHEMERIS_TYPE": 0, "CLASSIFICATION_TYPE": "U", "NORAD_CAT_ID": 37312, "ELEMENT_SET_NO": 999, "REV_AT_EPOCH": 86315, "BSTAR": 0.00037673205, "MEAN_MOTION_DOT": 1.322e-05, "MEAN_MOTION_DDOT": 0}, "tle": {"line1": "1 37312U 93036BKC 25357.20603698  .00001322  00000+0  37673-3 0  9999", "line2": "2 37312  74.0297 184.6435 0018445 287.0443  72.8694 14.46156001863155"}}, "geometry": {"type": "Point", "coordinates": [-4.674568128120483, 22.871507384221925]}}, {"type": "Feature", "properties": {"norad_id": 37316, "name": "COSMOS 2251 DEB", "group": "cosmos-2251-debris", "lat": -61.83753389454412, "lon": -150.2581475701069, "alt_km": 609.7225139202592, "timestamp": "2025-12-24T11:33:00.416392+00:00", "meta": {"OBJECT_NAME": "COSMOS 2251 DEB", "OBJECT_ID": "1993-036BKG", "EPOCH": "2025-12-23T10:21:39.447648", "MEAN_MOTION": 14.94918981, "ECCENTRICITY": 0.0029495, "INCLINATION": 74.0191, "RA_OF_ASC_NODE": 359.4944, "ARG_OF_PERICENTER": 63.4834, "MEAN_ANOMALY": 296.9369, "EPHEMERIS_TYPE": 0, "CLASSIFICATION_TYPE": "U", "NORAD_CAT_ID": 37316, "ELEMENT_SET_NO": 999, "REV_AT_EPOCH": 86303, "BSTAR": 0.0022174, "MEAN_MOTION_DOT": 0.00024458, "MEAN_MOTION_DDOT": 0}, "tle": {"line1": "1 37316U 93036BKG 25357.43170657  .00024458  00000+0  22174-2 0  9996", "line2": "2 37316  74.0191 359.4944 0029495  63.4834 296.9369 14.94918981863037"}}, "geometry": {"type": "Point", "coordinates": [-150.2581475701069, -61.83753389454412]}}, {"type": "Feature", "properties": {"norad_id": 37320, "name": "COSMOS 2251 DEB", "group": "cosmos-2251-debris", "lat": 65.05043515503692, "lon": -126.95901097948637, "alt_km": 654.7968023812073, "timestamp": "2025-12-24T11:33:00.416402+00:00", "meta": {"OBJECT_NAME": "COSMOS 2251 DEB", "OBJECT_ID": "1993-036BKL", "EPOCH": "2025-12-22T20:16:00.405696", "MEAN_MOTION": 14.78886663, "ECCENTRICITY": 0.0046926, "INCLINATION": 74.0442, "RA_OF_ASC_NODE": 198.3073, "ARG_OF_PERICENTER": 283.335, "MEAN_ANOMALY": 76.2596, "EPHEMERIS_TYPE": 0, "CLASSIFICATION_TYPE": "U", "NORAD_CAT_ID": 37320, "ELEMENT_SET_NO": 999, "REV_AT_EPOCH": 66296, "BSTAR": 0.000787018, "MEAN_MOTION_DOT": 5.877e-05, "MEAN_MOTION_DDOT": 0}, "tle": {"line1": "1 37320U 93036BKL 25356.84444914  .00005877  00000+0  78702-3 0  9998", "line2": "2 37320  74.0442 198.3073 0046926 283.3350  76.2596 14.78886663662961"}}, "geometry": {"type": "Point", "coordinates": [-126.95901097948637, 65.05043515503692]}}, {"type": "Feature", "properties": {"norad_id": 37326, "name": "COSMOS 2251 DEB", "group": "cosmos-2251-debris", "lat": -73.92167928564425, "lon": -144.14465466454405, "alt_km": 732.9166745750535, "timestamp": "2025-12-24T11:33:00.416413+00:00", "meta": {"OBJECT_NAME": "COSMOS 2251 DEB", "OBJECT_ID": "1993-036BKS", "EPOCH": "2025-12-18T14:41:59.918784", "MEAN_MOTION": 14.6160351, "ECCENTRICITY": 0.00547059, "INCLINATION": 74.0257, "RA_OF_ASC_NODE": 323.4491, "ARG_OF_PERICENTER": 90.7075, "MEAN_ANOMALY": 270.0361, "EPHEMERIS_TYPE": 0, "CLASSIFICATION_TYPE": "U", "NORAD_CAT_ID": 37326, "ELEMENT_SET_NO": 999, "REV_AT_EPOCH": 85569, "BSTAR": 0.00040097011, "MEAN_MOTION_DOT": 2.005e-05, "MEAN_MOTION_DDOT": 0}, "tle": {"line1": "1 37326U 93036BKS 25352.61249906  .00002005  00000+0  40097-3 0  9995", "line2": "2 37326  74.0257 323.4491 0054705  90.7075 270.0361 14.61603510855692"}}, "geometry": {"type": "Point", "coordinates": [-144.14465466454405, -73.92167928564425]}}, {"type": "Feature", "properties": {"norad_id": 37330, "name": "COSMOS 2251 DEB", "group": "cosmos-2251-debris", "lat": 0.7322075841246242, "lon": 92.46293313916148, "alt_km": 677.6643166707963, "timestamp": "2025-12-24T11:33:00.416423+00:00", "meta": {"OBJECT_NAME": "COSMOS 2251 DEB", "OBJECT_ID": "1993-036BKW", "EPOCH": "2025-12-24T00:52:02.666208", "MEAN_MOTION": 14.59569552, "ECCENTRICITY": 0.0056742, "INCLINATION": 74.0177, "RA_OF_ASC_NODE": 273.5222, "ARG_OF_PERICENTER": 118.7622, "MEAN_ANOMALY": 241.926, "EPHEMERIS_TYPE": 0, "CLASSIFICATION_TYPE": "U", "NORAD_CAT_ID": 37330, "ELEMENT_SET_NO": 999, "REV_AT_EPOCH": 86533, "BSTAR": 0.00027721, "MEAN_MOTION_DOT": 1.317e-05, "MEAN_MOTION_DDOT": 0}, "tle": {"line1": "1 37330U 93036BKW 25358.03614197  .00001317  00000+0  27721-3 0  9994", "line2": "2 37330  74.0177 273.5222 0056742 118.7622 241.9260 14.59569552865338"}}, "geometry": {"type": "Point", "coordinates": [92.46293313916148, 0.7322075841246242]}}, {"type": "Feature", "properties": {"norad_id": 37331, "name": "COSMOS 2251 DEB", "group": "cosmos-2251-debris", "lat": -14.561930370818649, "lon": 42.14605075796691, "alt_km": 766.9638698977969, "timestamp": "2025-12-24T11:33:00.416433+00:00", "meta": {"OBJECT_NAME": "COSMOS 2251 DEB", "OBJECT_ID": "1993-036BKX", "EPOCH": "2025-12-20T20:37:09.916320", "MEAN_MOTION": 14.35041344, "ECCENTRICITY": 0.0055285, "INCLINATION": 74.0747, "RA_OF_ASC_NODE": 53.0207, "ARG_OF_PERICENTER": 64.7623, "MEAN_ANOMALY": 295.9246, "EPHEMERIS_TYPE": 0, "CLASSIFICATION_TYPE": "U", "NORAD_CAT_ID": 37331, "ELEMENT_SET_NO": 999, "REV_AT_EPOCH": 84876, "BSTAR": 0.00030498, "MEAN_MOTION_DOT": 8.59e-06, "MEAN_MOTION_DDOT": 0}, "tle": {"line1": "1 37331U 93036BKX 25354.85914255  .00000859  00000+0  30498-3 0  9994", "line2": "2 37331  74.0747  53.0207 0055285  64.7623 295.9246 14.35041344848767"}}, "geometry": {"type": "Point", "coordinates": [42.14605075796691, -14.561930370818649]}}, {"type": "Feature", "properties": {"norad_id": 37336, "name": "COSMOS 2251 DEB", "group": "cosmos-2251-debris", "lat": -47.369374378346365, "lon": 147.89303681592568, "alt_km": 807.7077880487286, "timestamp": "2025-12-24T11:33:00.416443+00:00", "meta": {"OBJECT_NAME": "COSMOS 2251 DEB", "OBJECT_ID": "1993-036BLC", "EPOCH": "2025-12-17T07:33:13.175712", "MEAN_MOTION": 14.32760586, "ECCENTRICITY": 0.00290162, "INCLINATION": 74.0414, "RA_OF_ASC_NODE": 322.8603, "ARG_OF_PERICENTER": 39.1846, "MEAN_ANOMALY": 321.1399, "EPHEMERIS_TYPE": 0, "CLASSIFICATION_TYPE": "U", "NORAD_CAT_ID": 37336, "ELEMENT_SET_NO": 999, "REV_AT_EPOCH": 65185, "BSTAR": 6.9199726e-05, "MEAN_MOTION_DOT": 1.63e-06, "MEAN_MOTION_DDOT": 0}, "tle": {"line1": "1 37336U 93036BLC 25351.31473583  .00000163  00000+0  69200-4 0  9993", "line2": "2 37336  74.0414 322.8603 0029016  39.1846 321.1399 14.32760586651852"}}, "geometry": {"type": "Point", "coordinates": [147.89303681592568, -47.369374378346365]}}, {"type": "Feature", "properties": {"norad_id": 37340, "name": "COSMOS 2251 DEB", "group": "cosmos-2251-debris", "lat": -73.54980682696437, "lon": 151.52001368822133, "alt_km": 773.7251478268299, "timestamp": "2025-12-24T11:33:00.416454+00:00", "meta": {"OBJECT_NAME": "COSMOS 2251 DEB", "OBJECT_ID": "1993-036BLG", "EPOCH": "2025-12-19T03:19:36.196032", "MEAN_MOTION": 14.36930541, "ECCENTRICITY": 0.00180628, "INCLINATION": 74.0254, "RA_OF_ASC_NODE": 265.3825, "ARG_OF_PERICENTER": 358.9051, "MEAN_ANOMALY": 1.206, "EPHEMERIS_TYPE": 0, "CLASSIFICATION_TYPE": "U", "NORAD_CAT_ID": 37340, "ELEMENT_SET_NO": 999, "REV_AT_EPOCH": 84159, "BSTAR": 0.00014760605, "MEAN_MOTION_DOT": 4.11e-06, "MEAN_MOTION_DDOT": 0}, "tle": {"line1": "1 37340U 93036BLG 25353.13861338  .00000411  00000+0  14761-3 0  9996", "line2": "2 37340  74.0254 265.3825 0018062 358.9051   1.2060 14.36930541841592"}}, "geometry": {"type": "Point", "coordinates": [151.52001368822133, -73.54980682696437]}}]}